{
  "type": "FeatureCollection",
  "features": [
    {
      "type": "Feature",
      "properties": {
        "norad_id": 33822,
        "name": "COSMOS 2251 DEB",
        "group": "cosmos-2251-debris",
        "lat": -21.924653023554264,
        "lon": -173.1365594837986,
        "alt_km": 866.6128954768883,
        "timestamp": "2025-12-12T20:43:07.428364+00:00",
        "meta_object_name": "COSMOS 2251 DEB",
        "meta_object_id": "1993-036BP",
        "meta_epoch": "2025-12-12T01:01:47.524224",
        "meta_mean_motion": 14.13064474,
        "meta_eccentricity": 0.0153388,
        "meta_inclination": 74.0696,
        "meta_ra_of_asc_node": 194.9123,
        "meta_arg_of_pericenter": 241.4163,
        "meta_mean_anomaly": 242.4911,
        "meta_ephemeris_type": 0,
        "meta_classification_type": "U",
        "meta_norad_cat_id": 33822,
        "meta_element_set_no": 999,
        "meta_rev_at_epoch": 86044,
        "meta_bstar": 0.0018681,
        "meta_mean_motion_dot": 3.877e-05,
        "meta_mean_motion_ddot": 0,
        "tle_line1": "1 33822U 93036BP  25346.04291116  .00003877  00000+0  18681-2 0  9993",
        "tle_line2": "2 33822  74.0696 194.9123 0153388 241.4163 242.4911 14.13064474860449"
      },
      "geometry": {
        "type": "Point",
        "coordinates": [
          -173.1365594837986,
          -21.924653023554264
        ]
      }
    },
    {
      "type": "Feature",
      "properties": {
        "norad_id": 33823,
        "name": "COSMOS 2251 DEB",
        "group": "cosmos-2251-debris",
        "lat": 29.209896007720687,
        "lon": -40.234592579343435,
        "alt_km": 980.5482761177618,
        "timestamp": "2025-12-12T20:43:07.428375+00:00",
        "meta_object_name": "COSMOS 2251 DEB",
        "meta_object_id": "1993-036BQ",
        "meta_epoch": "2025-12-11T22:26:29.901120",
        "meta_mean_motion": 13.98946683,
        "meta_eccentricity": 0.0209328,
        "meta_inclination": 73.8087,
        "meta_ra_of_asc_node": 150.7405,
        "meta_arg_of_pericenter": 276.03,
        "meta_mean_anomaly": 242.4311,
        "meta_ephemeris_type": 0,
        "meta_classification_type": "U",
        "meta_norad_cat_id": 33823,
        "meta_element_set_no": 999,
        "meta_rev_at_epoch": 85598,
        "meta_bstar": 0.001069,
        "meta_mean_motion_dot": 1.835e-05,
        "meta_mean_motion_ddot": 0,
        "tle_line1": "1 33823U 93036BQ  25345.93506830  .00001835  00000+0  10690-2 0  9997",
        "tle_line2": "2 33823  73.8087 150.7405 0209328 276.0300 242.4311 13.98946683855987"
      },
      "geometry": {
        "type": "Point",
        "coordinates": [
          -40.234592579343435,
          29.209896007720687
        ]
      }
    },
    {
      "type": "Feature",
      "properties": {
        "norad_id": 33825,
        "name": "COSMOS 2251 DEB",
        "group": "cosmos-2251-debris",
        "lat": -14.304966997819204,
        "lon": -148.2489755655153,
        "alt_km": 721.8967037007442,
        "timestamp": "2025-12-12T20:43:07.428386+00:00",
        "meta_object_name": "COSMOS 2251 DEB",
        "meta_object_id": "1993-036BS",
        "meta_epoch": "2025-12-12T07:06:22.550112",
        "meta_mean_motion": 14.69758097,
        "meta_eccentricity": 0.00845163,
        "meta_inclination": 73.9856,
        "meta_ra_of_asc_node": 28.6535,
        "meta_arg_of_pericenter": 355.7956,
        "meta_mean_anomaly": 79.4991,
        "meta_ephemeris_type": 0,
        "meta_classification_type": "U",
        "meta_norad_cat_id": 33825,
        "meta_element_set_no": 999,
        "meta_rev_at_epoch": 88873,
        "meta_bstar": 0.0011412196,
        "meta_mean_motion_dot": 7.164e-05,
        "meta_mean_motion_ddot": 0,
        "tle_line1": "1 33825U 93036BS  25346.29609433  .00007164  00000+0  11412-2 0  9996",
        "tle_line2": "2 33825  73.9856  28.6535 0084516 355.7956  79.4991 14.69758097888733"
      },
      "geometry": {
        "type": "Point",
        "coordinates": [
          -148.2489755655153,
          -14.304966997819204
        ]
      }
    },
    {
      "type": "Feature",
      "properties": {
        "norad_id": 33826,
        "name": "COSMOS 2251 DEB",
        "group": "cosmos-2251-debris",
        "lat": 69.29330622184395,
        "lon": 98.7418644183025,
        "alt_km": 656.5368089594303,
        "timestamp": "2025-12-12T20:43:07.428397+00:00",
        "meta_object_name": "COSMOS 2251 DEB",
        "meta_object_id": "1993-036BT",
        "meta_epoch": "2025-12-12T07:26:59.991648",
        "meta_mean_motion": 14.51713916,
        "meta_eccentricity": 0.00832139,
        "meta_inclination": 74.065,
        "meta_ra_of_asc_node": 50.6828,
        "meta_arg_of_pericenter": 95.1998,
        "meta_mean_anomaly": 333.535,
        "meta_ephemeris_type": 0,
        "meta_classification_type": "U",
        "meta_norad_cat_id": 33826,
        "meta_element_set_no": 999,
        "meta_rev_at_epoch": 87763,
        "meta_bstar": 0.0016298693,
        "meta_mean_motion_dot": 6.825e-05,
        "meta_mean_motion_ddot": 0,
        "tle_line1": "1 33826U 93036BT  25346.31041657  .00006825  00000+0  16299-2 0  9999",
        "tle_line2": "2 33826  74.0650  50.6828 0083213  95.1998 333.5350 14.51713916877634"
      },
      "geometry": {
        "type": "Point",
        "coordinates": [
          98.7418644183025,
          69.29330622184395
        ]
      }
    },
    {
      "type": "Feature",
      "properties": {
        "norad_id": 33828,
        "name": "COSMOS 2251 DEB",
        "group": "cosmos-2251-debris",
        "lat": -28.504883917019047,
        "lon": -131.07578153032583,
        "alt_km": 729.9355771686869,
        "timestamp": "2025-12-12T20:43:07.428407+00:00",
        "meta_object_name": "COSMOS 2251 DEB",
        "meta_object_id": "1993-036BV",
        "meta_epoch": "2025-12-12T03:09:15.958080",
        "meta_mean_motion": 14.4433018,
        "meta_eccentricity": 0.00294565,
        "meta_inclination": 74.0467,
        "meta_ra_of_asc_node": 239.2213,
        "meta_arg_of_pericenter": 312.2502,
        "meta_mean_anomaly": 174.2235,
        "meta_ephemeris_type": 0,
        "meta_classification_type": "U",
        "meta_norad_cat_id": 33828,
        "meta_element_set_no": 999,
        "meta_rev_at_epoch": 88304,
        "meta_bstar": 0.00074486904,
        "meta_mean_motion_dot": 2.551e-05,
        "meta_mean_motion_ddot": 0,
        "tle_line1": "1 33828U 93036BV  25346.13143470  .00002551  00000+0  74487-3 0  9993",
        "tle_line2": "2 33828  74.0467 239.2213 0029456 312.2502 174.2235 14.44330180883042"
      },
      "geometry": {
        "type": "Point",
        "coordinates": [
          -131.07578153032583,
          -28.504883917019047
        ]
      }
    },
    {
      "type": "Feature",
      "properties": {
        "norad_id": 33830,
        "name": "COSMOS 2251 DEB",
        "group": "cosmos-2251-debris",
        "lat": -37.589527104764315,
        "lon": 62.85801051528312,
        "alt_km": 664.5490002706929,
        "timestamp": "2025-12-12T20:43:07.428419+00:00",
        "meta_object_name": "COSMOS 2251 DEB",
        "meta_object_id": "1993-036BX",
        "meta_epoch": "2025-12-12T04:11:05.236224",
        "meta_mean_motion": 14.76888979,
        "meta_eccentricity": 0.00423599,
        "meta_inclination": 74.0322,
        "meta_ra_of_asc_node": 231.4744,
        "meta_arg_of_pericenter": 351.6601,
        "meta_mean_anomaly": 166.6886,
        "meta_ephemeris_type": 0,
        "meta_classification_type": "U",
        "meta_norad_cat_id": 33830,
        "meta_element_set_no": 999,
        "meta_rev_at_epoch": 89463,
        "meta_bstar": 0.001299332,
        "meta_mean_motion_dot": 9.249e-05,
        "meta_mean_motion_ddot": 0,
        "tle_line1": "1 33830U 93036BX  25346.17436616  .00009249  00000+0  12993-2 0  9991",
        "tle_line2": "2 33830  74.0322 231.4744 0042359 351.6601 166.6886 14.76888979894635"
      },
      "geometry": {
        "type": "Point",
        "coordinates": [
          62.85801051528312,
          -37.589527104764315
        ]
      }
    },
    {
      "type": "Feature",
      "properties": {
        "norad_id": 33832,
        "name": "COSMOS 2251 DEB",
        "group": "cosmos-2251-debris",
        "lat": -72.51186870439389,
        "lon": 94.89790262010013,
        "alt_km": 681.6905899376325,
        "timestamp": "2025-12-12T20:43:07.428429+00:00",
        "meta_object_name": "COSMOS 2251 DEB",
        "meta_object_id": "1993-036BZ",
        "meta_epoch": "2025-12-12T02:08:01.251168",
        "meta_mean_motion": 14.60633839,
        "meta_eccentricity": 0.00249109,
        "meta_inclination": 74.0538,
        "meta_ra_of_asc_node": 211.2164,
        "meta_arg_of_pericenter": 242.4436,
        "meta_mean_anomaly": 269.9436,
        "meta_ephemeris_type": 0,
        "meta_classification_type": "U",
        "meta_norad_cat_id": 33832,
        "meta_element_set_no": 999,
        "meta_rev_at_epoch": 88415,
        "meta_bstar": 0.0020716206,
        "meta_mean_motion_dot": 0.0001011,
        "meta_mean_motion_ddot": 0,
        "tle_line1": "1 33832U 93036BZ  25346.08890337  .00010110  00000+0  20716-2 0  9998",
        "tle_line2": "2 33832  74.0538 211.2164 0024910 242.4436 269.9436 14.60633839884154"
      },
      "geometry": {
        "type": "Point",
        "coordinates": [
          94.89790262010013,
          -72.51186870439389
        ]
      }
    }
  ]
}